STARLINK-2022           
1 47643U 21012Z   24184.71658371  .00016847  00000+0  11476-2 0  9993
2 47643  53.0552 292.3381 0001170 103.7364 256.3755 15.06385735187571
